[{"OBJECT_NAME":"STARLINK-35777","OBJECT_ID":"2025-288S","EPOCH":"2026-03-09T07:18:00.057312","MEAN_MOTION":15.27607847,"ECCENTRICITY":0.00012648,"INCLINATION":43.0009,"RA_OF_ASC_NODE":26.0425,"ARG_OF_PERICENTER":270.6434,"MEAN_ANOMALY":89.4272,"EPHEMERIS_TYPE":0,"CLASSIFICATION_TYPE":"U","NORAD_CAT_ID":66975,"ELEMENT_SET_NO":999,"REV_AT_EPOCH":1522,"BSTAR":0.0011604901,"MEAN_MOTION_DOT":0.00031837,"MEAN_MOTION_DDOT":0},{"OBJECT_NAME":"SIMSAT 2","OBJECT_ID":"2000-026B","EPOCH":"2026-03-09T20:25:01.673184","MEAN_MOTION":15.29036787,"ECCENTRICITY":0.00037035,"INCLINATION":86.3514,"RA_OF_ASC_NODE":176.4271,"ARG_OF_PERICENTER":287.9875,"MEAN_ANOMALY":72.0969,"EPHEMERIS_TYPE":0,"CLASSIFICATION_TYPE":"U","NORAD_CAT_ID":26366,"ELEMENT_SET_NO":999,"REV_AT_EPOCH":42803,"BSTAR":0.00013465771,"MEAN_MOTION_DOT":3.833e-5,"MEAN_MOTION_DDOT":0}]
